$$SOE
2461295.500000000, A.D. 2026-Sep-12 00:00:00.0000, 9.064921945865048E+06, 1.807997912063175E+08, 4.414714419973068E+06,
2461302.500000000, A.D. 2026-Sep-19 00:00:00.0000, -9.539545758470215E+06, 1.781313832078553E+08, 3.869606869202606E+06,
2461309.500000000, A.D. 2026-Sep-26 00:00:00.0000, -2.806154906396439E+07, 1.739427044995387E+08, 3.291502398902580E+06,
2461316.500000000, A.D. 2026-Oct-03 00:00:00.0000, -4.633408881639417E+07, 1.682133188860289E+08, 2.684268321249276E+06,
2461323.500000000, A.D. 2026-Oct-10 00:00:00.0000, -6.418327272652335E+07, 1.609495799352663E+08, 2.052570234333672E+06,
2461330.500000000, A.D. 2026-Oct-17 00:00:00.0000, -8.143420019602656E+07, 1.521868414682269E+08, 1.401770212911732E+06,
2461337.500000000, A.D. 2026-Oct-24 00:00:00.0000, -9.791752366583015E+07, 1.419899638164909E+08, 7.377680185331628E+05,
2461344.500000000, A.D. 2026-Oct-31 00:00:00.0000, -1.134760717194818E+08, 1.304518893865098E+08, 6.679605599270761E+04,
2461351.500000000, A.D. 2026-Nov-07 00:00:00.0000, -1.279708521545423E+08, 1.176903271975861E+08, -6.048133245435208E+05,
2461358.500000000, A.D. 2026-Nov-14 00:00:00.0000, -1.412858172906083E+08, 1.038428648581118E+08, -1.270864736198634E+06,
2461365.500000000, A.D. 2026-Nov-21 00:00:00.0000, -1.533309607235758E+08, 8.906104633944105E+07, -1.925516982742246E+06,
2461372.500000000, A.D. 2026-Nov-28 00:00:00.0000, -1.640435723533302E+08, 7.350405939384231E+07, -2.563461290444974E+06,
2461379.500000000, A.D. 2026-Dec-05 00:00:00.0000, -1.733877386746244E+08, 5.733266001922780E+07, -3.180048772571329E+06,
2461386.500000000, A.D. 2026-Dec-12 00:00:00.0000, -1.813523890565771E+08, 4.070383991388834E+07, -3.771363059230648E+06,
2461393.500000000, A.D. 2026-Dec-19 00:00:00.0000, -1.879483115527076E+08, 2.376655529586584E+07, -4.334241517174947E+06,
2461400.500000000, A.D. 2026-Dec-26 00:00:00.0000, -1.932045868492543E+08, 6.658642465473422E+06, -4.866253870021500E+06,
2461407.500000000, A.D. 2027-Jan-02 00:00:00.0000, -1.971648416076973E+08, -1.049511452478205E+07, -5.365649488399622E+06,
2461414.500000000, A.D. 2027-Jan-09 00:00:00.0000, -1.998836330628953E+08, -2.758390781800868E+07, -5.831284785401052E+06,
2461421.500000000, A.D. 2027-Jan-16 00:00:00.0000, -2.014231741254799E+08, -4.451102115877283E+07, -6.262540779110851E+06,
2461428.500000000, A.D. 2027-Jan-23 00:00:00.0000, -2.018505136508832E+08, -6.119334936080330E+07, -6.659238727892835E+06,
2461435.500000000, A.D. 2027-Jan-30 00:00:00.0000, -2.012352112833795E+08, -7.756051802553110E+07, -7.021559425944701E+06,
2461442.500000000, A.D. 2027-Feb-06 00:00:00.0000, -1.996474935415699E+08, -9.355376737349871E+07, -7.349969627057560E+06,
2461449.500000000, A.D. 2027-Feb-13 00:00:00.0000, -1.971568467617229E+08, -1.091247261819085E+08, -7.645157213195257E+06,
2461456.500000000, A.D. 2027-Feb-20 00:00:00.0000, -1.938309886823921E+08, -1.242341685458754E+08, -7.907975485143125E+06,
2461463.500000000, A.D. 2027-Feb-27 00:00:00.0000, -1.897351524102102E+08, -1.388508185051179E+08, -8.139396708409928E+06,
2461470.500000000, A.D. 2027-Mar-06 00:00:00.0000, -1.849316178077588E+08, -1.529502385996977E+08, -8.340474326656073E+06,
2461477.500000000, A.D. 2027-Mar-13 00:00:00.0000, -1.794794366780559E+08, -1.665138204569173E+08, -8.512312581699364E+06,
2461484.500000000, A.D. 2027-Mar-20 00:00:00.0000, -1.734343058270188E+08, -1.795278858224077E+08, -8.656042459853522E+06,
2461491.500000000, A.D. 2027-Mar-27 00:00:00.0000, -1.668485490651691E+08, -1.919828978795507E+08, -8.772802997185260E+06,
2461498.500000000, A.D. 2027-Apr-03 00:00:00.0000, -1.597711769545185E+08, -2.038727771374097E+08, -8.863727022025332E+06,
2461505.500000000, A.D. 2027-Apr-10 00:00:00.0000, -1.522480000394698E+08, -2.151943132850149E+08, -8.929930508320749E+06,
2461512.500000000, A.D. 2027-Apr-17 00:00:00.0000, -1.443217770207810E+08, -2.259466631678592E+08, -8.972504831907496E+06,
2461519.500000000, A.D. 2027-Apr-24 00:00:00.0000, -1.360323838869569E+08, -2.361309248258435E+08, -8.992511346156493E+06,
2461526.500000000, A.D. 2027-May-01 00:00:00.0000, -1.274169934634622E+08, -2.457497778027704E+08, -8.990977810898811E+06,
2461533.500000000, A.D. 2027-May-08 00:00:00.0000, -1.185102576923138E+08, -2.548071799274091E+08, -8.968896241168022E+06,
2461540.500000000, A.D. 2027-May-15 00:00:00.0000, -1.093444889521510E+08, -2.633081114380285E+08, -8.927221637015045E+06,
2461547.500000000, A.D. 2027-May-22 00:00:00.0000, -9.994983845220613E+07, -2.712583617974240E+08, -8.866871403657198E+06,
2461554.500000000, A.D. 2027-May-29 00:00:00.0000, -9.035446604990463E+07, -2.786643543391089E+08, -8.788725683658481E+06,
2461561.500000000, A.D. 2027-Jun-05 00:00:00.0000, -8.058469922105643E+07, -2.855330001419922E+08, -8.693628262831241E+06,
2461568.500000000, A.D. 2027-Jun-12 00:00:00.0000, -7.066518245603798E+07, -2.918715760080051E+08, -8.582387701720834E+06,
2461575.500000000, A.D. 2027-Jun-19 00:00:00.0000, -6.061901714339141E+07, -2.976876234831756E+08, -8.455778639062673E+06,
2461582.500000000, A.D. 2027-Jun-26 00:00:00.0000, -5.046789172177989E+07, -3.029888658044415E+08, -8.314543238339737E+06,
2461589.500000000, A.D. 2027-Jul-03 00:00:00.0000, -4.023220225637446E+07, -3.077831399142073E+08, -8.159392731954068E+06,
2461596.500000000, A.D. 2027-Jul-10 00:00:00.0000, -2.993116384071284E+07, -3.120783411351719E+08, -7.991009023012847E+06,
2461603.500000000, A.D. 2027-Jul-17 00:00:00.0000, -1.958291331768095E+07, -3.158823785262129E+08, -7.810046318593085E+06,
2461610.500000000, A.D. 2027-Jul-24 00:00:00.0000, -9.204603740695016E+06, -3.192031392820833E+08, -7.617132788783476E+06,
2461617.500000000, A.D. 2027-Jul-31 00:00:00.0000, 1.187509244926535E+06, -3.220484605101594E+08, -7.412872251188859E+06,
2461624.500000000, A.D. 2027-Aug-07 00:00:00.0000, 1.157798831486353E+07, -3.244261060312101E+08, -7.197845755013213E+06,
2461631.500000000, A.D. 2027-Aug-14 00:00:00.0000, 2.195213980542566E+07, -3.263437474506623E+08, -6.972612865465790E+06,
2461638.500000000, A.D. 2027-Aug-21 00:00:00.0000, 3.229594355884914E+07, -3.278089520226788E+08, -6.737712974869043E+06,
2461645.500000000, A.D. 2027-Aug-28 00:00:00.0000, 4.259599019681458E+07, -3.288291754056625E+08, -6.493666854192361E+06,
2461652.500000000, A.D. 2027-Sep-04 00:00:00.0000, 5.283942416308123E+07, -3.294117562280778E+08, -6.240978131257743E+06,
2461659.500000000, A.D. 2027-Sep-11 00:00:00.0000, 6.301389069427096E+07, -3.295639126434259E+08, -5.980134622144610E+06,
2461666.500000000, A.D. 2027-Sep-18 00:00:00.0000, 7.310748643956067E+07, -3.292927411234811E+08, -5.711609582725242E+06,
2461673.500000000, A.D. 2027-Sep-25 00:00:00.0000, 8.310871357754086E+07, -3.286052172355210E+08, -5.435862910060942E+06,
2461680.500000000, A.D. 2027-Oct-02 00:00:00.0000, 9.300643715500723E+07, -3.275081981015855E+08, -5.153342301376686E+06,
2461687.500000000, A.D. 2027-Oct-09 00:00:00.0000, 1.027898453500280E+08, -3.260084263184224E+08, -4.864484376768366E+06,
2461694.500000000, A.D. 2027-Oct-16 00:00:00.0000, 1.124484124317219E+08, -3.241125352112899E+08, -4.569715779916629E+06,
2461701.500000000, A.D. 2027-Oct-23 00:00:00.0000, 1.219718644110951E+08, -3.218270552859700E+08, -4.269454284872115E+06,
2461708.500000000, A.D. 2027-Oct-30 00:00:00.0000, 1.313501475125637E+08, -3.191584211606991E+08, -3.964109896901160E+06,
2461715.500000000, A.D. 2027-Nov-06 00:00:00.0000, 1.405733980753111E+08, -3.161129777677695E+08, -3.654085751969174E+06,
2461722.500000000, A.D. 2027-Nov-13 00:00:00.0000, 1.496319116873308E+08, -3.126969878380354E+08, -3.339778806103513E+06,
2461729.500000000, A.D. 2027-Nov-20 00:00:00.0000, 1.585161142584835E+08, -3.089166428067766E+08, -3.021580763339415E+06,
2461736.500000000, A.D. 2027-Nov-27 00:00:00.0000, 1.672165364722697E+08, -3.047780741453410E+08, -2.699879152468905E+06,
2461743.500000000, A.D. 2027-Dec-04 00:00:00.0000, 1.757237894336628E+08, -3.002873641893509E+08, -2.375058296823055E+06,
2461750.500000000, A.D. 2027-Dec-11 00:00:00.0000, 1.840285408226996E+08, -2.954505574310697E+08, -2.047500210094869E+06,
2461757.500000000, A.D. 2027-Dec-18 00:00:00.0000, 1.921214917034434E+08, -2.902736726417893E+08, -1.717585475440145E+06,
2461764.500000000, A.D. 2027-Dec-25 00:00:00.0000, 1.999933540216049E+08, -2.847627158730928E+08, -1.385694125639245E+06,
2461771.500000000, A.D. 2028-Jan-01 00:00:00.0000, 2.076348287170614E+08, -2.789236943815010E+08, -1.052206530404136E+06,
$$EOE